CCSDS_OMM_VERS = 2.0
CREATION_DATE  = 
ORIGINATOR     = 

OBJECT_NAME    = STARLINK-35699
OBJECT_ID      = 2025-268A
CENTER_NAME    = EARTH
REF_FRAME      = TEME
TIME_SYSTEM    = UTC
MEAN_ELEMENT_THEORY = SGP/SGP4

EPOCH          = 2025-11-29T04:00:01.998720
MEAN_MOTION    = 15.88007555
ECCENTRICITY   = .0001689
INCLINATION    = 42.9970
RA_OF_ASC_NODE = 202.3906
ARG_OF_PERICENTER = 275.2535
MEAN_ANOMALY   = 271.1851

EPHEMERIS_TYPE = 0
CLASSIFICATION_TYPE = U
NORAD_CAT_ID   = 66557
ELEMENT_SET_NO = 999
REV_AT_EPOCH   = 248
BSTAR          = -.55221E-2
MEAN_MOTION_DOT = -.1362745E-1
MEAN_MOTION_DDOT = 0

CCSDS_OMM_VERS = 2.0
CREATION_DATE  = 
ORIGINATOR     = 

OBJECT_NAME    = STARLINK-35695
OBJECT_ID      = 2025-268B
CENTER_NAME    = EARTH
REF_FRAME      = TEME
TIME_SYSTEM    = UTC
MEAN_ELEMENT_THEORY = SGP/SGP4

EPOCH          = 2025-11-29T04:00:01.998720
MEAN_MOTION    = 15.88049698
ECCENTRICITY   = .0001727
INCLINATION    = 42.9970
RA_OF_ASC_NODE = 202.3862
ARG_OF_PERICENTER = 273.2043
MEAN_ANOMALY   = 275.0004

EPHEMERIS_TYPE = 0
CLASSIFICATION_TYPE = U
NORAD_CAT_ID   = 66558
ELEMENT_SET_NO = 999
REV_AT_EPOCH   = 248
BSTAR          = -.55627E-2
MEAN_MOTION_DOT = -.137409E-1
MEAN_MOTION_DDOT = 0

CCSDS_OMM_VERS = 2.0
CREATION_DATE  = 
ORIGINATOR     = 

OBJECT_NAME    = STARLINK-35419
OBJECT_ID      = 2025-268C
CENTER_NAME    = EARTH
REF_FRAME      = TEME
TIME_SYSTEM    = UTC
MEAN_ELEMENT_THEORY = SGP/SGP4

EPOCH          = 2025-11-29T04:00:01.998720
MEAN_MOTION    = 15.88085245
ECCENTRICITY   = .0001719
INCLINATION    = 42.9969
RA_OF_ASC_NODE = 202.3813
ARG_OF_PERICENTER = 272.5793
MEAN_ANOMALY   = 277.6110

EPHEMERIS_TYPE = 0
CLASSIFICATION_TYPE = U
NORAD_CAT_ID   = 66559
ELEMENT_SET_NO = 999
REV_AT_EPOCH   = 248
BSTAR          = -.55491E-2
MEAN_MOTION_DOT = -.1373309E-1
MEAN_MOTION_DDOT = 0

CCSDS_OMM_VERS = 2.0
CREATION_DATE  = 
ORIGINATOR     = 

OBJECT_NAME    = STARLINK-35411
OBJECT_ID      = 2025-268D
CENTER_NAME    = EARTH
REF_FRAME      = TEME
TIME_SYSTEM    = UTC
MEAN_ELEMENT_THEORY = SGP/SGP4

EPOCH          = 2025-11-29T04:00:01.998720
MEAN_MOTION    = 15.88082896
ECCENTRICITY   = .0001562
INCLINATION    = 42.9972
RA_OF_ASC_NODE = 202.3766
ARG_OF_PERICENTER = 283.0713
MEAN_ANOMALY   = 268.9785

EPHEMERIS_TYPE = 0
CLASSIFICATION_TYPE = U
NORAD_CAT_ID   = 66560
ELEMENT_SET_NO = 999
REV_AT_EPOCH   = 248
BSTAR          = -.53756E-2
MEAN_MOTION_DOT = -.1335364E-1
MEAN_MOTION_DDOT = 0

CCSDS_OMM_VERS = 2.0
CREATION_DATE  = 
ORIGINATOR     = 

OBJECT_NAME    = STARLINK-35305
OBJECT_ID      = 2025-268E
CENTER_NAME    = EARTH
REF_FRAME      = TEME
TIME_SYSTEM    = UTC
MEAN_ELEMENT_THEORY = SGP/SGP4

EPOCH          = 2025-11-29T04:00:01.998720
MEAN_MOTION    = 15.88203479
ECCENTRICITY   = .0001782
INCLINATION    = 42.9970
RA_OF_ASC_NODE = 202.3670
ARG_OF_PERICENTER = 272.1126
MEAN_ANOMALY   = 283.7022

EPHEMERIS_TYPE = 0
CLASSIFICATION_TYPE = U
NORAD_CAT_ID   = 66561
ELEMENT_SET_NO = 999
REV_AT_EPOCH   = 243
BSTAR          = -.56106E-2
MEAN_MOTION_DOT = -.1393875E-1
MEAN_MOTION_DDOT = 0

CCSDS_OMM_VERS = 2.0
CREATION_DATE  = 
ORIGINATOR     = 

OBJECT_NAME    = STARLINK-35579
OBJECT_ID      = 2025-268F
CENTER_NAME    = EARTH
REF_FRAME      = TEME
TIME_SYSTEM    = UTC
MEAN_ELEMENT_THEORY = SGP/SGP4

EPOCH          = 2025-11-29T04:00:01.998720
MEAN_MOTION    = 15.88161212
ECCENTRICITY   = .0001703
INCLINATION    = 42.9970
RA_OF_ASC_NODE = 202.3713
ARG_OF_PERICENTER = 274.1437
MEAN_ANOMALY   = 279.8683

EPHEMERIS_TYPE = 0
CLASSIFICATION_TYPE = U
NORAD_CAT_ID   = 66562
ELEMENT_SET_NO = 999
REV_AT_EPOCH   = 248
BSTAR          = -.55636E-2
MEAN_MOTION_DOT = -.1381053E-1
MEAN_MOTION_DDOT = 0

CCSDS_OMM_VERS = 2.0
CREATION_DATE  = 
ORIGINATOR     = 

OBJECT_NAME    = STARLINK-35437
OBJECT_ID      = 2025-268G
CENTER_NAME    = EARTH
REF_FRAME      = TEME
TIME_SYSTEM    = UTC
MEAN_ELEMENT_THEORY = SGP/SGP4

EPOCH          = 2025-11-29T04:00:01.998720
MEAN_MOTION    = 15.88234345
ECCENTRICITY   = .0001748
INCLINATION    = 42.9968
RA_OF_ASC_NODE = 202.3617
ARG_OF_PERICENTER = 271.8423
MEAN_ANOMALY   = 285.9553

EPHEMERIS_TYPE = 0
CLASSIFICATION_TYPE = U
NORAD_CAT_ID   = 66563
ELEMENT_SET_NO = 999
REV_AT_EPOCH   = 248
BSTAR          = -.55629E-2
MEAN_MOTION_DOT = -.1385406E-1
MEAN_MOTION_DDOT = 0

CCSDS_OMM_VERS = 2.0
CREATION_DATE  = 
ORIGINATOR     = 

OBJECT_NAME    = STARLINK-35358
OBJECT_ID      = 2025-268H
CENTER_NAME    = EARTH
REF_FRAME      = TEME
TIME_SYSTEM    = UTC
MEAN_ELEMENT_THEORY = SGP/SGP4

EPOCH          = 2025-11-29T04:00:01.998720
MEAN_MOTION    = 15.88279699
ECCENTRICITY   = .0001982
INCLINATION    = 42.9969
RA_OF_ASC_NODE = 202.3574
ARG_OF_PERICENTER = 268.2479
MEAN_ANOMALY   = 291.3160

EPHEMERIS_TYPE = 0
CLASSIFICATION_TYPE = U
NORAD_CAT_ID   = 66564
ELEMENT_SET_NO = 999
REV_AT_EPOCH   = 243
BSTAR          = -.56222E-2
MEAN_MOTION_DOT = -.1401271E-1
MEAN_MOTION_DDOT = 0

CCSDS_OMM_VERS = 2.0
CREATION_DATE  = 
ORIGINATOR     = 

OBJECT_NAME    = STARLINK-35893
OBJECT_ID      = 2025-268J
CENTER_NAME    = EARTH
REF_FRAME      = TEME
TIME_SYSTEM    = UTC
MEAN_ELEMENT_THEORY = SGP/SGP4

EPOCH          = 2025-11-29T04:00:01.998720
MEAN_MOTION    = 15.88327501
ECCENTRICITY   = .0001739
INCLINATION    = 42.9969
RA_OF_ASC_NODE = 202.3528
ARG_OF_PERICENTER = 270.4934
MEAN_ANOMALY   = 290.8786

EPHEMERIS_TYPE = 0
CLASSIFICATION_TYPE = U
NORAD_CAT_ID   = 66565
ELEMENT_SET_NO = 999
REV_AT_EPOCH   = 248
BSTAR          = -.56471E-2
MEAN_MOTION_DOT = -.1409442E-1
MEAN_MOTION_DDOT = 0

CCSDS_OMM_VERS = 2.0
CREATION_DATE  = 
ORIGINATOR     = 

OBJECT_NAME    = STARLINK-35871
OBJECT_ID      = 2025-268K
CENTER_NAME    = EARTH
REF_FRAME      = TEME
TIME_SYSTEM    = UTC
MEAN_ELEMENT_THEORY = SGP/SGP4

EPOCH          = 2025-11-29T04:00:01.998720
MEAN_MOTION    = 15.88356870
ECCENTRICITY   = .0001791
INCLINATION    = 42.9971
RA_OF_ASC_NODE = 202.3473
ARG_OF_PERICENTER = 272.1021
MEAN_ANOMALY   = 291.5081

EPHEMERIS_TYPE = 0
CLASSIFICATION_TYPE = U
NORAD_CAT_ID   = 66566
ELEMENT_SET_NO = 999
REV_AT_EPOCH   = 248
BSTAR          = -.56698E-2
MEAN_MOTION_DOT = -.1416231E-1
MEAN_MOTION_DDOT = 0

CCSDS_OMM_VERS = 2.0
CREATION_DATE  = 
ORIGINATOR     = 

OBJECT_NAME    = STARLINK-35825
OBJECT_ID      = 2025-268L
CENTER_NAME    = EARTH
REF_FRAME      = TEME
TIME_SYSTEM    = UTC
MEAN_ELEMENT_THEORY = SGP/SGP4

EPOCH          = 2025-11-29T04:00:01.998720
MEAN_MOTION    = 15.88402819
ECCENTRICITY   = .0001798
INCLINATION    = 42.9972
RA_OF_ASC_NODE = 202.3422
ARG_OF_PERICENTER = 270.0857
MEAN_ANOMALY   = 295.5735

EPHEMERIS_TYPE = 0
CLASSIFICATION_TYPE = U
NORAD_CAT_ID   = 66567
ELEMENT_SET_NO = 999
REV_AT_EPOCH   = 248
BSTAR          = -.57045E-2
MEAN_MOTION_DOT = -.1426647E-1
MEAN_MOTION_DDOT = 0

CCSDS_OMM_VERS = 2.0
CREATION_DATE  = 
ORIGINATOR     = 

OBJECT_NAME    = STARLINK-35803
OBJECT_ID      = 2025-268M
CENTER_NAME    = EARTH
REF_FRAME      = TEME
TIME_SYSTEM    = UTC
MEAN_ELEMENT_THEORY = SGP/SGP4

EPOCH          = 2025-11-29T04:00:01.998720
MEAN_MOTION    = 15.88435365
ECCENTRICITY   = .0001797
INCLINATION    = 42.9971
RA_OF_ASC_NODE = 202.3366
ARG_OF_PERICENTER = 273.0415
MEAN_ANOMALY   = 294.7932

EPHEMERIS_TYPE = 0
CLASSIFICATION_TYPE = U
NORAD_CAT_ID   = 66568
ELEMENT_SET_NO = 999
REV_AT_EPOCH   = 248
BSTAR          = -.57322E-2
MEAN_MOTION_DOT = -.1434713E-1
MEAN_MOTION_DDOT = 0

