STARLINK-35699          
1 66557U 25268A   25333.16668980 -.01362745  00000+0 -55221-2 0  9998
2 66557  42.9970 202.3906 0001689 275.2535 271.1851 15.88007555  2480
STARLINK-35695          
1 66558U 25268B   25333.16668980 -.01374090  00000+0 -55627-2 0  9995
2 66558  42.9970 202.3862 0001727 273.2043 275.0004 15.88049698  2484
STARLINK-35419          
1 66559U 25268C   25333.16668980 -.01373309  00000+0 -55491-2 0  9997
2 66559  42.9969 202.3813 0001719 272.5793 277.6110 15.88085245  2488
STARLINK-35411          
1 66560U 25268D   25333.16668980 -.01335364  00000+0 -53756-2 0  9990
2 66560  42.9972 202.3766 0001562 283.0713 268.9785 15.88082896  2486
STARLINK-35305          
1 66561U 25268E   25333.16668980 -.01393875  00000+0 -56106-2 0  9994
2 66561  42.9970 202.3670 0001782 272.1126 283.7022 15.88203479  2436
STARLINK-35579          
1 66562U 25268F   25333.16668980 -.01381053  00000+0 -55636-2 0  9997
2 66562  42.9970 202.3713 0001703 274.1437 279.8683 15.88161212  2487
STARLINK-35437          
1 66563U 25268G   25333.16668980 -.01385406  00000+0 -55629-2 0  9996
2 66563  42.9968 202.3617 0001748 271.8423 285.9553 15.88234345  2488
STARLINK-35358          
1 66564U 25268H   25333.16668980 -.01401271  00000+0 -56222-2 0  9996
2 66564  42.9969 202.3574 0001982 268.2479 291.3160 15.88279699  2434
STARLINK-35893          
1 66565U 25268J   25333.16668980 -.01409442  00000+0 -56471-2 0  9991
2 66565  42.9969 202.3528 0001739 270.4934 290.8786 15.88327501  2484
STARLINK-35871          
1 66566U 25268K   25333.16668980 -.01416231  00000+0 -56698-2 0  9997
2 66566  42.9971 202.3473 0001791 272.1021 291.5081 15.88356870  2488
STARLINK-35825          
1 66567U 25268L   25333.16668980 -.01426647  00000+0 -57045-2 0  9997
2 66567  42.9972 202.3422 0001798 270.0857 295.5735 15.88402819  2480
STARLINK-35803          
1 66568U 25268M   25333.16668980 -.01434713  00000+0 -57322-2 0  9999
2 66568  42.9971 202.3366 0001797 273.0415 294.7932 15.88435365  2481
